AII-BRAVO               
1 48270U 21034C   26068.69561509  .00006142  00000+0  46527-3 0  9993
2 48270  97.5758 125.8704 0005372 233.3237 126.7495 15.02621336264679
STARLINK-34676          
1 64853U 25152M   26068.61782416  .00004192  00000+0  29449-3 0  9994
2 64853  97.6019 285.3895 0001979  80.3489 279.7962 15.05655301 35403
